{"type": "FeatureCollection", "features": [ {"type": "Feature", "properties": {"norad_id": 34571, "name": "COSMOS 2251 DEB", "group": "cosmos-2251-debris", "lat": 14.690776967436141, "lon": 173.84726011386743, "alt_km": 775.807719709428, "timestamp": "2025-12-19T14:48:36.642758+00:00", "meta": {"OBJECT_NAME": "COSMOS 2251 DEB", "OBJECT_ID": "1993-036VH", "EPOCH": "2025-12-18T22:10:04.528128", "MEAN_MOTION": 14.48905766, "ECCENTRICITY": 0.0065409, "INCLINATION": 74.0384, "RA_OF_ASC_NODE": 170.8432, "ARG_OF_PERICENTER": 204.4185, "MEAN_ANOMALY": 155.3874, "EPHEMERIS_TYPE": 0, "CLASSIFICATION_TYPE": "U", "NORAD_CAT_ID": 34571, "ELEMENT_SET_NO": 999, "REV_AT_EPOCH": 87383, "BSTAR": 0.0018317465, "MEAN_MOTION_DOT": 7.102e-05, "MEAN_MOTION_DDOT": 0}, "tle": {"line1": "1 34571U 93036VH  25352.92366352  .00007102  00000+0  18317-2 0  9995", "line2": "2 34571  74.0384 170.8432 0065409 204.4185 155.3874 14.48905766873833"}}, "geometry": {"type": "Point", "coordinates": [173.84726011386743, 14.690776967436141]}}, {"type": "Feature", "properties": {"norad_id": 34572, "name": "COSMOS 2251 DEB", "group": "cosmos-2251-debris", "lat": -73.94939223175386, "lon": 7.8711502184114135, "alt_km": 734.6928031860725, "timestamp": "2025-12-19T14:48:36.642770+00:00", "meta": {"OBJECT_NAME": "COSMOS 2251 DEB", "OBJECT_ID": "1993-036VJ", "EPOCH": "2025-12-17T08:51:26.669952", "MEAN_MOTION": 14.50108121, "ECCENTRICITY": 0.00622699, "INCLINATION": 74.0105, "RA_OF_ASC_NODE": 106.7968, "ARG_OF_PERICENTER": 179.7942, "MEAN_ANOMALY": 237.2131, "EPHEMERIS_TYPE": 0, "CLASSIFICATION_TYPE": "U", "NORAD_CAT_ID": 34572, "ELEMENT_SET_NO": 999, "REV_AT_EPOCH": 87445, "BSTAR": 0.0020762256, "MEAN_MOTION_DOT": 8.243e-05, "MEAN_MOTION_DDOT": 0}, "tle": {"line1": "1 34572U 93036VJ  25351.36905868  .00008243  00000+0  20762-2 0  9998", "line2": "2 34572  74.0105 106.7968 0062269 179.7942 237.2131 14.50108121874451"}}, "geometry": {"type": "Point", "coordinates": [7.8711502184114135, -73.94939223175386]}}, {"type": "Feature", "properties": {"norad_id": 34574, "name": "COSMOS 2251 DEB", "group": "cosmos-2251-debris", "lat": -53.80899565433062, "lon": 6.831587131054587, "alt_km": 678.0532696583741, "timestamp": "2025-12-19T14:48:36.642781+00:00", "meta": {"OBJECT_NAME": "COSMOS 2251 DEB", "OBJECT_ID": "1993-036VL", "EPOCH": "2025-12-19T03:53:34.047168", "MEAN_MOTION": 14.70670537, "ECCENTRICITY": 0.00670673, "INCLINATION": 74.0688, "RA_OF_ASC_NODE": 30.6919, "ARG_OF_PERICENTER": 49.6994, "MEAN_ANOMALY": 6.6582, "EPHEMERIS_TYPE": 0, "CLASSIFICATION_TYPE": "U", "NORAD_CAT_ID": 34574, "ELEMENT_SET_NO": 999, "REV_AT_EPOCH": 88873, "BSTAR": 0.00065499234, "MEAN_MOTION_DOT": 4.099e-05, "MEAN_MOTION_DDOT": 0}, "tle": {"line1": "1 34574U 93036VL  25353.16219962  .00004099  00000+0  65499-3 0  9995", "line2": "2 34574  74.0688  30.6919 0067067  49.6994   6.6582 14.70670537888734"}}, "geometry": {"type": "Point", "coordinates": [6.831587131054587, -53.80899565433062]}}, {"type": "Feature", "properties": {"norad_id": 34576, "name": "COSMOS 2251 DEB", "group": "cosmos-2251-debris", "lat": -69.86313544099488, "lon": -3.5008688277408653, "alt_km": 708.9592712966469, "timestamp": "2025-12-19T14:48:36.642791+00:00", "meta": {"OBJECT_NAME": "COSMOS 2251 DEB", "OBJECT_ID": "1993-036VN", "EPOCH": "2025-12-18T20:11:07.329984", "MEAN_MOTION": 14.55466, "ECCENTRICITY": 0.00082163, "INCLINATION": 74.034, "RA_OF_ASC_NODE": 126.6375, "ARG_OF_PERICENTER": 263.7064, "MEAN_ANOMALY": 249.3441, "EPHEMERIS_TYPE": 0, "CLASSIFICATION_TYPE": "U", "NORAD_CAT_ID": 34576, "ELEMENT_SET_NO": 999, "REV_AT_EPOCH": 88555, "BSTAR": 0.00064112979, "MEAN_MOTION_DOT": 2.762e-05, "MEAN_MOTION_DDOT": 0}, "tle": {"line1": "1 34576U 93036VN  25352.84105706  .00002762  00000+0  64113-3 0  9998", "line2": "2 34576  74.0340 126.6375 0008216 263.7064 249.3441 14.55466000885559"}}, "geometry": {"type": "Point", "coordinates": [-3.5008688277408653, -69.86313544099488]}}, {"type": "Feature", "properties": {"norad_id": 34579, "name": "COSMOS 2251 DEB", "group": "cosmos-2251-debris", "lat": -42.728902416536776, "lon": 46.405117873216604, "alt_km": 735.6406321084696, "timestamp": "2025-12-19T14:48:36.642802+00:00", "meta": {"OBJECT_NAME": "COSMOS 2251 DEB", "OBJECT_ID": "1993-036VR", "EPOCH": "2025-12-19T07:40:08.255136", "MEAN_MOTION": 14.45325476, "ECCENTRICITY": 0.00275383, "INCLINATION": 74.0518, "RA_OF_ASC_NODE": 211.6432, "ARG_OF_PERICENTER": 279.3076, "MEAN_ANOMALY": 198.168, "EPHEMERIS_TYPE": 0, "CLASSIFICATION_TYPE": "U", "NORAD_CAT_ID": 34579, "ELEMENT_SET_NO": 999, "REV_AT_EPOCH": 88269, "BSTAR": 0.00027802021, "MEAN_MOTION_DOT": 9.54e-06, "MEAN_MOTION_DDOT": 0}, "tle": {"line1": "1 34579U 93036VR  25353.31953999  .00000954  00000+0  27802-3 0  9994", "line2": "2 34579  74.0518 211.6432 0027538 279.3076 198.1680 14.45325476882690"}}, "geometry": {"type": "Point", "coordinates": [46.405117873216604, -42.728902416536776]}}, {"type": "Feature", "properties": {"norad_id": 34582, "name": "COSMOS 2251 DEB", "group": "cosmos-2251-debris", "lat": 60.611748978319895, "lon": 49.00385093121947, "alt_km": 750.9276127703633, "timestamp": "2025-12-19T14:48:36.642814+00:00", "meta": {"OBJECT_NAME": "COSMOS 2251 DEB", "OBJECT_ID": "1993-036VU", "EPOCH": "2025-12-19T04:18:05.961024", "MEAN_MOTION": 14.43357051, "ECCENTRICITY": 0.00482225, "INCLINATION": 74.0201, "RA_OF_ASC_NODE": 260.4012, "ARG_OF_PERICENTER": 9.1253, "MEAN_ANOMALY": 351.0768, "EPHEMERIS_TYPE": 0, "CLASSIFICATION_TYPE": "U", "NORAD_CAT_ID": 34582, "ELEMENT_SET_NO": 999, "REV_AT_EPOCH": 88040, "BSTAR": 0.00057137156, "MEAN_MOTION_DOT": 1.928e-05, "MEAN_MOTION_DDOT": 0}, "tle": {"line1": "1 34582U 93036VU  25353.17923566  .00001928  00000+0  57137-3 0  9995", "line2": "2 34582  74.0201 260.4012 0048222   9.1253 351.0768 14.43357051880404"}}, "geometry": {"type": "Point", "coordinates": [49.00385093121947, 60.611748978319895]}}, {"type": "Feature", "properties": {"norad_id": 34588, "name": "COSMOS 2251 DEB", "group": "cosmos-2251-debris", "lat": 41.08522545653921, "lon": 61.06609428594585, "alt_km": 761.6889554037452, "timestamp": "2025-12-19T14:48:36.642825+00:00", "meta": {"OBJECT_NAME": "COSMOS 2251 DEB", "OBJECT_ID": "1993-036WA", "EPOCH": "2025-12-19T04:54:50.443200", "MEAN_MOTION": 14.42040162, "ECCENTRICITY": 0.0019267, "INCLINATION": 74.043, "RA_OF_ASC_NODE": 256.2759, "ARG_OF_PERICENTER": 308.2893, "MEAN_ANOMALY": 208.8114, "EPHEMERIS_TYPE": 0, "CLASSIFICATION_TYPE": "U", "NORAD_CAT_ID": 34588, "ELEMENT_SET_NO": 999, "REV_AT_EPOCH": 88043, "BSTAR": 0.00032757037, "MEAN_MOTION_DOT": 1.051e-05, "MEAN_MOTION_DDOT": 0}, "tle": {"line1": "1 34588U 93036WA  25353.20475050  .00001051  00000+0  32757-3 0  9993", "line2": "2 34588  74.0430 256.2759 0019267 308.2893 208.8114 14.42040162880433"}}, "geometry": {"type": "Point", "coordinates": [61.06609428594585, 41.08522545653921]}}, {"type": "Feature", "properties": {"norad_id": 34589, "name": "COSMOS 2251 DEB", "group": "cosmos-2251-debris", "lat": 36.153596224759916, "lon": 56.47567595515734, "alt_km": 822.3227448415946, "timestamp": "2025-12-19T14:48:36.642836+00:00", "meta": {"OBJECT_NAME": "COSMOS 2251 DEB", "OBJECT_ID": "1993-036WB", "EPOCH": "2025-12-18T10:58:28.293888", "MEAN_MOTION": 13.86058444, "ECCENTRICITY": 0.02521011, "INCLINATION": 73.9252, "RA_OF_ASC_NODE": 46.2894, "ARG_OF_PERICENTER": 348.4727, "MEAN_ANOMALY": 22.1754, "EPHEMERIS_TYPE": 0, "CLASSIFICATION_TYPE": "U", "NORAD_CAT_ID": 34589, "ELEMENT_SET_NO": 999, "REV_AT_EPOCH": 84791, "BSTAR": 0.0002886968, "MEAN_MOTION_DOT": 4.02e-06, "MEAN_MOTION_DDOT": 0}, "tle": {"line1": "1 34589U 93036WB  25352.45727192  .00000402  00000+0  28870-3 0  9997", "line2": "2 34589  73.9252  46.2894 0252101 348.4727  22.1754 13.86058444847911"}}, "geometry": {"type": "Point", "coordinates": [56.47567595515734, 36.153596224759916]}}, {"type": "Feature", "properties": {"norad_id": 34590, "name": "COSMOS 2251 DEB", "group": "cosmos-2251-debris", "lat": -70.70198641275839, "lon": -105.25155154955006, "alt_km": 760.8720120807347, "timestamp": "2025-12-19T14:48:36.642847+00:00", "meta": {"OBJECT_NAME": "COSMOS 2251 DEB", "OBJECT_ID": "1993-036WC", "EPOCH": "2025-12-19T05:33:46.179072", "MEAN_MOTION": 14.5483298, "ECCENTRICITY": 0.00679971, "INCLINATION": 74.0441, "RA_OF_ASC_NODE": 310.2692, "ARG_OF_PERICENTER": 77.9732, "MEAN_ANOMALY": 346.1753, "EPHEMERIS_TYPE": 0, "CLASSIFICATION_TYPE": "U", "NORAD_CAT_ID": 34590, "ELEMENT_SET_NO": 999, "REV_AT_EPOCH": 89215, "BSTAR": 0.00010011039, "MEAN_MOTION_DOT": 4.13e-06, "MEAN_MOTION_DDOT": 0}, "tle": {"line1": "1 34590U 93036WC  25353.23178448  .00000413  00000+0  10011-3 0  9990", "line2": "2 34590  74.0441 310.2692 0067997  77.9732 346.1753 14.54832980892157"}}, "geometry": {"type": "Point", "coordinates": [-105.25155154955006, -70.70198641275839]}}, {"type": "Feature", "properties": {"norad_id": 34609, "name": "COSMOS 2251 DEB", "group": "cosmos-2251-debris", "lat": -43.61487560841471, "lon": 78.0008776029192, "alt_km": 720.8293803942934, "timestamp": "2025-12-19T14:48:36.642857+00:00", "meta": {"OBJECT_NAME": "COSMOS 2251 DEB", "OBJECT_ID": "1993-036WE", "EPOCH": "2025-12-19T06:43:05.056896", "MEAN_MOTION": 14.21814448, "ECCENTRICITY": 0.01454694, "INCLINATION": 73.7337, "RA_OF_ASC_NODE": 94.7686, "ARG_OF_PERICENTER": 313.2418, "MEAN_ANOMALY": 75.7069, "EPHEMERIS_TYPE": 0, "CLASSIFICATION_TYPE": "U", "NORAD_CAT_ID": 34609, "ELEMENT_SET_NO": 999, "REV_AT_EPOCH": 86725, "BSTAR": 0.00051746651, "MEAN_MOTION_DOT": 1.24e-05, "MEAN_MOTION_DDOT": 0}, "tle": {"line1": "1 34609U 93036WE  25353.27991964  .00001240  00000+0  51747-3 0  9991", "line2": "2 34609  73.7337  94.7686 0145469 313.2418  75.7069 14.21814448867254"}}, "geometry": {"type": "Point", "coordinates": [78.0008776029192, -43.61487560841471]}}]}